STARLINK-36153          
1 66934U 25286K   25352.58336806 -.01308453  00000+0 -69372-2 0  9991
2 66934  53.1560  21.0384 0000893  66.6874  55.9228 15.82646295  2938
STARLINK-36127          
1 66935U 25286L   25352.58336806 -.01315373  00000+0 -69832-2 0  9992
2 66935  53.1560  21.0336 0001058  70.1894  54.8628 15.82631655  2938
STARLINK-36160          
1 66936U 25286M   25352.58336806 -.01328198  00000+0 -70578-2 0  9991
2 66936  53.1560  21.0295 0001025  61.7540  65.4116 15.82641401  2931
STARLINK-36165          
1 66937U 25286N   25352.58336806 -.01336159  00000+0 -71044-2 0  9997
2 66937  53.1559  21.0245 0001165  60.7733  68.5418 15.82645181  2931
STARLINK-36155          
1 66938U 25286P   25352.58336806 -.01339519  00000+0 -71241-2 0  9990
2 66938  53.1557  21.0199 0001088  65.1519  66.3186 15.82648145  2934
STARLINK-36154          
1 66939U 25286Q   25352.58336806 -.01351490  00000+0 -72015-2 0  9993
2 66939  53.1557  21.0105 0001138  65.0266  71.0210 15.82634585  2930
STARLINK-36121          
1 66940U 25286R   25352.58336806 -.01353193  00000+0 -72118-2 0  9991
2 66940  53.1554  21.0059 0000859  69.6611  68.4831 15.82637932  2938
STARLINK-36088          
1 66941U 25286S   25352.58336806 -.01346888  00000+0 -71744-2 0  9999
2 66941  53.1558  21.0146 0001010  67.4801  66.3970 15.82633074  2931
STARLINK-36100          
1 66942U 25286T   25352.58336806 -.01337930  00000+0 -71240-2 0  9999
2 66942  53.1554  21.0013 0000845  50.1552  90.1646 15.82622610  2869
STARLINK-36109          
1 66943U 25286U   25352.58336806 -.01365966  00000+0 -72947-2 0  9995
2 66943  53.1553  20.9961 0000848  70.1076  72.6485 15.82624328  2869
STARLINK-36112          
1 66944U 25286V   25352.58336806 -.01402278  00000+0 -73483-2 0  9990
2 66944  53.1553  20.9917 0000989  73.1783  71.6624 15.82634123  2931
STARLINK-36110          
1 66945U 25286W   25352.58336806 -.01410095  00000+0 -73990-2 0  9990
2 66945  53.1550  20.9865 0000959  72.1833  75.0577 15.82621252  2937
