CCSDS_OMM_VERS = 2.0
CREATION_DATE  = 
ORIGINATOR     = 

OBJECT_NAME    = STARLINK-36153
OBJECT_ID      = 2025-286K
CENTER_NAME    = EARTH
REF_FRAME      = TEME
TIME_SYSTEM    = UTC
MEAN_ELEMENT_THEORY = SGP/SGP4

EPOCH          = 2025-12-18T14:00:03.000384
MEAN_MOTION    = 15.82646295
ECCENTRICITY   = .00008937
INCLINATION    = 53.1560
RA_OF_ASC_NODE = 21.0384
ARG_OF_PERICENTER = 66.6874
MEAN_ANOMALY   = 55.9228

EPHEMERIS_TYPE = 0
CLASSIFICATION_TYPE = U
NORAD_CAT_ID   = 66934
ELEMENT_SET_NO = 999
REV_AT_EPOCH   = 293
BSTAR          = -.69371696E-2
MEAN_MOTION_DOT = -.1308453E-1
MEAN_MOTION_DDOT = 0

CCSDS_OMM_VERS = 2.0
CREATION_DATE  = 
ORIGINATOR     = 

OBJECT_NAME    = STARLINK-36127
OBJECT_ID      = 2025-286L
CENTER_NAME    = EARTH
REF_FRAME      = TEME
TIME_SYSTEM    = UTC
MEAN_ELEMENT_THEORY = SGP/SGP4

EPOCH          = 2025-12-18T14:00:03.000384
MEAN_MOTION    = 15.82631655
ECCENTRICITY   = .00010589
INCLINATION    = 53.1560
RA_OF_ASC_NODE = 21.0336
ARG_OF_PERICENTER = 70.1894
MEAN_ANOMALY   = 54.8628

EPHEMERIS_TYPE = 0
CLASSIFICATION_TYPE = U
NORAD_CAT_ID   = 66935
ELEMENT_SET_NO = 999
REV_AT_EPOCH   = 293
BSTAR          = -.69832315E-2
MEAN_MOTION_DOT = -.1315373E-1
MEAN_MOTION_DDOT = 0

CCSDS_OMM_VERS = 2.0
CREATION_DATE  = 
ORIGINATOR     = 

OBJECT_NAME    = STARLINK-36160
OBJECT_ID      = 2025-286M
CENTER_NAME    = EARTH
REF_FRAME      = TEME
TIME_SYSTEM    = UTC
MEAN_ELEMENT_THEORY = SGP/SGP4

EPOCH          = 2025-12-18T14:00:03.000384
MEAN_MOTION    = 15.82641401
ECCENTRICITY   = .00010258
INCLINATION    = 53.1560
RA_OF_ASC_NODE = 21.0295
ARG_OF_PERICENTER = 61.7540
MEAN_ANOMALY   = 65.4116

EPHEMERIS_TYPE = 0
CLASSIFICATION_TYPE = U
NORAD_CAT_ID   = 66936
ELEMENT_SET_NO = 999
REV_AT_EPOCH   = 293
BSTAR          = -.70578378E-2
MEAN_MOTION_DOT = -.1328198E-1
MEAN_MOTION_DDOT = 0

CCSDS_OMM_VERS = 2.0
CREATION_DATE  = 
ORIGINATOR     = 

OBJECT_NAME    = STARLINK-36165
OBJECT_ID      = 2025-286N
CENTER_NAME    = EARTH
REF_FRAME      = TEME
TIME_SYSTEM    = UTC
MEAN_ELEMENT_THEORY = SGP/SGP4

EPOCH          = 2025-12-18T14:00:03.000384
MEAN_MOTION    = 15.82645181
ECCENTRICITY   = .00011652
INCLINATION    = 53.1559
RA_OF_ASC_NODE = 21.0245
ARG_OF_PERICENTER = 60.7733
MEAN_ANOMALY   = 68.5418

EPHEMERIS_TYPE = 0
CLASSIFICATION_TYPE = U
NORAD_CAT_ID   = 66937
ELEMENT_SET_NO = 999
REV_AT_EPOCH   = 293
BSTAR          = -.71043657E-2
MEAN_MOTION_DOT = -.1336159E-1
MEAN_MOTION_DDOT = 0

CCSDS_OMM_VERS = 2.0
CREATION_DATE  = 
ORIGINATOR     = 

OBJECT_NAME    = STARLINK-36155
OBJECT_ID      = 2025-286P
CENTER_NAME    = EARTH
REF_FRAME      = TEME
TIME_SYSTEM    = UTC
MEAN_ELEMENT_THEORY = SGP/SGP4

EPOCH          = 2025-12-18T14:00:03.000384
MEAN_MOTION    = 15.82648145
ECCENTRICITY   = .00010883
INCLINATION    = 53.1557
RA_OF_ASC_NODE = 21.0199
ARG_OF_PERICENTER = 65.1519
MEAN_ANOMALY   = 66.3186

EPHEMERIS_TYPE = 0
CLASSIFICATION_TYPE = U
NORAD_CAT_ID   = 66938
ELEMENT_SET_NO = 999
REV_AT_EPOCH   = 293
BSTAR          = -.71241033E-2
MEAN_MOTION_DOT = -.1339519E-1
MEAN_MOTION_DDOT = 0

CCSDS_OMM_VERS = 2.0
CREATION_DATE  = 
ORIGINATOR     = 

OBJECT_NAME    = STARLINK-36154
OBJECT_ID      = 2025-286Q
CENTER_NAME    = EARTH
REF_FRAME      = TEME
TIME_SYSTEM    = UTC
MEAN_ELEMENT_THEORY = SGP/SGP4

EPOCH          = 2025-12-18T14:00:03.000384
MEAN_MOTION    = 15.82634585
ECCENTRICITY   = .00011381
INCLINATION    = 53.1557
RA_OF_ASC_NODE = 21.0105
ARG_OF_PERICENTER = 65.0266
MEAN_ANOMALY   = 71.0210

EPHEMERIS_TYPE = 0
CLASSIFICATION_TYPE = U
NORAD_CAT_ID   = 66939
ELEMENT_SET_NO = 999
REV_AT_EPOCH   = 293
BSTAR          = -.72014664E-2
MEAN_MOTION_DOT = -.135149E-1
MEAN_MOTION_DDOT = 0

CCSDS_OMM_VERS = 2.0
CREATION_DATE  = 
ORIGINATOR     = 

OBJECT_NAME    = STARLINK-36121
OBJECT_ID      = 2025-286R
CENTER_NAME    = EARTH
REF_FRAME      = TEME
TIME_SYSTEM    = UTC
MEAN_ELEMENT_THEORY = SGP/SGP4

EPOCH          = 2025-12-18T14:00:03.000384
MEAN_MOTION    = 15.82637932
ECCENTRICITY   = .00008598
INCLINATION    = 53.1554
RA_OF_ASC_NODE = 21.0059
ARG_OF_PERICENTER = 69.6611
MEAN_ANOMALY   = 68.4831

EPHEMERIS_TYPE = 0
CLASSIFICATION_TYPE = U
NORAD_CAT_ID   = 66940
ELEMENT_SET_NO = 999
REV_AT_EPOCH   = 293
BSTAR          = -.72118343E-2
MEAN_MOTION_DOT = -.1353193E-1
MEAN_MOTION_DDOT = 0

CCSDS_OMM_VERS = 2.0
CREATION_DATE  = 
ORIGINATOR     = 

OBJECT_NAME    = STARLINK-36088
OBJECT_ID      = 2025-286S
CENTER_NAME    = EARTH
REF_FRAME      = TEME
TIME_SYSTEM    = UTC
MEAN_ELEMENT_THEORY = SGP/SGP4

EPOCH          = 2025-12-18T14:00:03.000384
MEAN_MOTION    = 15.82633074
ECCENTRICITY   = .000101
INCLINATION    = 53.1558
RA_OF_ASC_NODE = 21.0146
ARG_OF_PERICENTER = 67.4801
MEAN_ANOMALY   = 66.3970

EPHEMERIS_TYPE = 0
CLASSIFICATION_TYPE = U
NORAD_CAT_ID   = 66941
ELEMENT_SET_NO = 999
REV_AT_EPOCH   = 293
BSTAR          = -.71744214E-2
MEAN_MOTION_DOT = -.1346888E-1
MEAN_MOTION_DDOT = 0

CCSDS_OMM_VERS = 2.0
CREATION_DATE  = 
ORIGINATOR     = 

OBJECT_NAME    = STARLINK-36100
OBJECT_ID      = 2025-286T
CENTER_NAME    = EARTH
REF_FRAME      = TEME
TIME_SYSTEM    = UTC
MEAN_ELEMENT_THEORY = SGP/SGP4

EPOCH          = 2025-12-18T14:00:03.000384
MEAN_MOTION    = 15.82622610
ECCENTRICITY   = .00008451
INCLINATION    = 53.1554
RA_OF_ASC_NODE = 21.0013
ARG_OF_PERICENTER = 50.1552
MEAN_ANOMALY   = 90.1646

EPHEMERIS_TYPE = 0
CLASSIFICATION_TYPE = U
NORAD_CAT_ID   = 66942
ELEMENT_SET_NO = 999
REV_AT_EPOCH   = 286
BSTAR          = -.71240262E-2
MEAN_MOTION_DOT = -.133793E-1
MEAN_MOTION_DDOT = 0

CCSDS_OMM_VERS = 2.0
CREATION_DATE  = 
ORIGINATOR     = 

OBJECT_NAME    = STARLINK-36109
OBJECT_ID      = 2025-286U
CENTER_NAME    = EARTH
REF_FRAME      = TEME
TIME_SYSTEM    = UTC
MEAN_ELEMENT_THEORY = SGP/SGP4

EPOCH          = 2025-12-18T14:00:03.000384
MEAN_MOTION    = 15.82624328
ECCENTRICITY   = .00008489
INCLINATION    = 53.1553
RA_OF_ASC_NODE = 20.9961
ARG_OF_PERICENTER = 70.1076
MEAN_ANOMALY   = 72.6485

EPHEMERIS_TYPE = 0
CLASSIFICATION_TYPE = U
NORAD_CAT_ID   = 66943
ELEMENT_SET_NO = 999
REV_AT_EPOCH   = 286
BSTAR          = -.72947274E-2
MEAN_MOTION_DOT = -.1365966E-1
MEAN_MOTION_DDOT = 0

CCSDS_OMM_VERS = 2.0
CREATION_DATE  = 
ORIGINATOR     = 

OBJECT_NAME    = STARLINK-36112
OBJECT_ID      = 2025-286V
CENTER_NAME    = EARTH
REF_FRAME      = TEME
TIME_SYSTEM    = UTC
MEAN_ELEMENT_THEORY = SGP/SGP4

EPOCH          = 2025-12-18T14:00:03.000384
MEAN_MOTION    = 15.82634123
ECCENTRICITY   = .00009899
INCLINATION    = 53.1553
RA_OF_ASC_NODE = 20.9917
ARG_OF_PERICENTER = 73.1783
MEAN_ANOMALY   = 71.6624

EPHEMERIS_TYPE = 0
CLASSIFICATION_TYPE = U
NORAD_CAT_ID   = 66944
ELEMENT_SET_NO = 999
REV_AT_EPOCH   = 293
BSTAR          = -.7348331E-2
MEAN_MOTION_DOT = -.1402278E-1
MEAN_MOTION_DDOT = 0

CCSDS_OMM_VERS = 2.0
CREATION_DATE  = 
ORIGINATOR     = 

OBJECT_NAME    = STARLINK-36110
OBJECT_ID      = 2025-286W
CENTER_NAME    = EARTH
REF_FRAME      = TEME
TIME_SYSTEM    = UTC
MEAN_ELEMENT_THEORY = SGP/SGP4

EPOCH          = 2025-12-18T14:00:03.000384
MEAN_MOTION    = 15.82621252
ECCENTRICITY   = .00009598
INCLINATION    = 53.1550
RA_OF_ASC_NODE = 20.9865
ARG_OF_PERICENTER = 72.1833
MEAN_ANOMALY   = 75.0577

EPHEMERIS_TYPE = 0
CLASSIFICATION_TYPE = U
NORAD_CAT_ID   = 66945
ELEMENT_SET_NO = 999
REV_AT_EPOCH   = 293
BSTAR          = -.7398989E-2
MEAN_MOTION_DOT = -.1410095E-1
MEAN_MOTION_DDOT = 0

